CCSDS_OMM_VERS = 2.0
CREATION_DATE  = 
ORIGINATOR     = 

OBJECT_NAME    = SL-3 R/B
OBJECT_ID      = 1988-032B
CENTER_NAME    = EARTH
REF_FRAME      = TEME
TIME_SYSTEM    = UTC
MEAN_ELEMENT_THEORY = SGP/SGP4

EPOCH          = 2026-03-17T13:36:04.911264
MEAN_MOTION    = 15.20000093
ECCENTRICITY   = .00251058
INCLINATION    = 97.5196
RA_OF_ASC_NODE = 59.7902
ARG_OF_PERICENTER = 202.6815
MEAN_ANOMALY   = 157.3313

EPHEMERIS_TYPE = 0
CLASSIFICATION_TYPE = U
NORAD_CAT_ID   = 19046
ELEMENT_SET_NO = 999
REV_AT_EPOCH   = 5330
BSTAR          = .19696581E-3
MEAN_MOTION_DOT = .4206E-4
MEAN_MOTION_DDOT = 0

CCSDS_OMM_VERS = 2.0
CREATION_DATE  = 
ORIGINATOR     = 

OBJECT_NAME    = SL-16 R/B
OBJECT_ID      = 1988-039B
CENTER_NAME    = EARTH
REF_FRAME      = TEME
TIME_SYSTEM    = UTC
MEAN_ELEMENT_THEORY = SGP/SGP4

EPOCH          = 2026-03-17T09:05:35.493792
MEAN_MOTION    = 14.19617500
ECCENTRICITY   = .00231634
INCLINATION    = 71.0146
RA_OF_ASC_NODE = 52.2872
ARG_OF_PERICENTER = 323.2051
MEAN_ANOMALY   = 36.7483

EPHEMERIS_TYPE = 0
CLASSIFICATION_TYPE = U
NORAD_CAT_ID   = 19120
ELEMENT_SET_NO = 999
REV_AT_EPOCH   = 95947
BSTAR          = .55569682E-4
MEAN_MOTION_DOT = .69E-6
MEAN_MOTION_DDOT = 0

CCSDS_OMM_VERS = 2.0
CREATION_DATE  = 
ORIGINATOR     = 

OBJECT_NAME    = COSMOS 1953
OBJECT_ID      = 1988-050A
CENTER_NAME    = EARTH
REF_FRAME      = TEME
TIME_SYSTEM    = UTC
MEAN_ELEMENT_THEORY = SGP/SGP4

EPOCH          = 2026-03-17T14:41:11.529600
MEAN_MOTION    = 15.28658508
ECCENTRICITY   = .00126606
INCLINATION    = 82.5102
RA_OF_ASC_NODE = 150.2799
ARG_OF_PERICENTER = 97.6943
MEAN_ANOMALY   = 262.5734

EPHEMERIS_TYPE = 0
CLASSIFICATION_TYPE = U
NORAD_CAT_ID   = 19210
ELEMENT_SET_NO = 999
REV_AT_EPOCH   = 3899
BSTAR          = .21344437E-3
MEAN_MOTION_DOT = .5994E-4
MEAN_MOTION_DDOT = 0

CCSDS_OMM_VERS = 2.0
CREATION_DATE  = 
ORIGINATOR     = 

OBJECT_NAME    = SL-8 R/B
OBJECT_ID      = 1988-053B
CENTER_NAME    = EARTH
REF_FRAME      = TEME
TIME_SYSTEM    = UTC
MEAN_ELEMENT_THEORY = SGP/SGP4

EPOCH          = 2026-03-17T12:46:31.932192
MEAN_MOTION    = 14.38920891
ECCENTRICITY   = .00215341
INCLINATION    = 74.0450
RA_OF_ASC_NODE = 98.0088
ARG_OF_PERICENTER = 276.2738
MEAN_ANOMALY   = 245.9432

EPHEMERIS_TYPE = 0
CLASSIFICATION_TYPE = U
NORAD_CAT_ID   = 19257
ELEMENT_SET_NO = 999
REV_AT_EPOCH   = 97772
BSTAR          = .99319959E-4
MEAN_MOTION_DOT = .28E-5
MEAN_MOTION_DDOT = 0

CCSDS_OMM_VERS = 2.0
CREATION_DATE  = 
ORIGINATOR     = 

OBJECT_NAME    = COSMOS 1975
OBJECT_ID      = 1988-093A
CENTER_NAME    = EARTH
REF_FRAME      = TEME
TIME_SYSTEM    = UTC
MEAN_ELEMENT_THEORY = SGP/SGP4

EPOCH          = 2026-03-17T02:58:55.759008
MEAN_MOTION    = 15.28173282
ECCENTRICITY   = .001279
INCLINATION    = 82.5171
RA_OF_ASC_NODE = 110.2205
ARG_OF_PERICENTER = 138.7497
MEAN_ANOMALY   = 221.4711

EPHEMERIS_TYPE = 0
CLASSIFICATION_TYPE = U
NORAD_CAT_ID   = 19573
ELEMENT_SET_NO = 999
REV_AT_EPOCH   = 2054
BSTAR          = .16695E-3
MEAN_MOTION_DOT = .4627E-4
MEAN_MOTION_DDOT = 0

CCSDS_OMM_VERS = 2.0
CREATION_DATE  = 
ORIGINATOR     = 

OBJECT_NAME    = SL-14 R/B
OBJECT_ID      = 1988-093B
CENTER_NAME    = EARTH
REF_FRAME      = TEME
TIME_SYSTEM    = UTC
MEAN_ELEMENT_THEORY = SGP/SGP4

EPOCH          = 2026-03-17T15:08:06.571104
MEAN_MOTION    = 14.85666441
ECCENTRICITY   = .00211278
INCLINATION    = 82.5321
RA_OF_ASC_NODE = 34.5895
ARG_OF_PERICENTER = 16.2873
MEAN_ANOMALY   = 156.4163

EPHEMERIS_TYPE = 0
CLASSIFICATION_TYPE = U
NORAD_CAT_ID   = 19574
ELEMENT_SET_NO = 999
REV_AT_EPOCH   = 219
BSTAR          = .58913812E-4
MEAN_MOTION_DOT = .537E-5
MEAN_MOTION_DDOT = 0

CCSDS_OMM_VERS = 2.0
CREATION_DATE  = 
ORIGINATOR     = 

OBJECT_NAME    = SL-16 R/B
OBJECT_ID      = 1988-102B
CENTER_NAME    = EARTH
REF_FRAME      = TEME
TIME_SYSTEM    = UTC
MEAN_ELEMENT_THEORY = SGP/SGP4

EPOCH          = 2026-03-17T14:29:56.084640
MEAN_MOTION    = 14.16155986
ECCENTRICITY   = .00145204
INCLINATION    = 70.9991
RA_OF_ASC_NODE = 134.8452
ARG_OF_PERICENTER = 349.2247
MEAN_ANOMALY   = 10.8563

EPHEMERIS_TYPE = 0
CLASSIFICATION_TYPE = U
NORAD_CAT_ID   = 19650
ELEMENT_SET_NO = 999
REV_AT_EPOCH   = 92801
BSTAR          = .37590874E-4
MEAN_MOTION_DOT = .27E-6
MEAN_MOTION_DDOT = 0

CCSDS_OMM_VERS = 2.0
CREATION_DATE  = 
ORIGINATOR     = 

OBJECT_NAME    = INTERCOSMOS 24
OBJECT_ID      = 1989-080A
CENTER_NAME    = EARTH
REF_FRAME      = TEME
TIME_SYSTEM    = UTC
MEAN_ELEMENT_THEORY = SGP/SGP4

EPOCH          = 2026-03-17T10:16:05.402784
MEAN_MOTION    = 12.59569303
ECCENTRICITY   = .11866683
INCLINATION    = 82.6018
RA_OF_ASC_NODE = 99.3639
ARG_OF_PERICENTER = 274.8407
MEAN_ANOMALY   = 71.8500

EPHEMERIS_TYPE = 0
CLASSIFICATION_TYPE = U
NORAD_CAT_ID   = 20261
ELEMENT_SET_NO = 999
REV_AT_EPOCH   = 66777
BSTAR          = .17325882E-3
MEAN_MOTION_DOT = .582E-5
MEAN_MOTION_DDOT = 0

CCSDS_OMM_VERS = 2.0
CREATION_DATE  = 
ORIGINATOR     = 

OBJECT_NAME    = SL-14 R/B
OBJECT_ID      = 1989-080C
CENTER_NAME    = EARTH
REF_FRAME      = TEME
TIME_SYSTEM    = UTC
MEAN_ELEMENT_THEORY = SGP/SGP4

EPOCH          = 2026-03-17T13:23:13.309152
MEAN_MOTION    = 12.50502604
ECCENTRICITY   = .12307595
INCLINATION    = 82.5968
RA_OF_ASC_NODE = 168.1372
ARG_OF_PERICENTER = 166.7724
MEAN_ANOMALY   = 196.9016

EPHEMERIS_TYPE = 0
CLASSIFICATION_TYPE = U
NORAD_CAT_ID   = 20262
ELEMENT_SET_NO = 999
REV_AT_EPOCH   = 66113
BSTAR          = .13762434E-3
MEAN_MOTION_DOT = .479E-5
MEAN_MOTION_DDOT = 0

CCSDS_OMM_VERS = 2.0
CREATION_DATE  = 
ORIGINATOR     = 

OBJECT_NAME    = DELTA 1 R/B
OBJECT_ID      = 1989-089B
CENTER_NAME    = EARTH
REF_FRAME      = TEME
TIME_SYSTEM    = UTC
MEAN_ELEMENT_THEORY = SGP/SGP4

EPOCH          = 2026-03-17T11:37:04.016928
MEAN_MOTION    = 14.50669790
ECCENTRICITY   = .00707131
INCLINATION    = 97.0700
RA_OF_ASC_NODE = 282.6828
ARG_OF_PERICENTER = 97.8099
MEAN_ANOMALY   = 263.1135

EPHEMERIS_TYPE = 0
CLASSIFICATION_TYPE = U
NORAD_CAT_ID   = 20323
ELEMENT_SET_NO = 999
REV_AT_EPOCH   = 89686
BSTAR          = .94616861E-4
MEAN_MOTION_DOT = .349E-5
MEAN_MOTION_DDOT = 0

CCSDS_OMM_VERS = 2.0
CREATION_DATE  = 
ORIGINATOR     = 

OBJECT_NAME    = ARIANE 40 R/B
OBJECT_ID      = 1990-005H
CENTER_NAME    = EARTH
REF_FRAME      = TEME
TIME_SYSTEM    = UTC
MEAN_ELEMENT_THEORY = SGP/SGP4

EPOCH          = 2026-03-17T14:18:59.398848
MEAN_MOTION    = 14.39875714
ECCENTRICITY   = .00103429
INCLINATION    = 98.3066
RA_OF_ASC_NODE = 137.0218
ARG_OF_PERICENTER = 174.4338
MEAN_ANOMALY   = 185.6968

EPHEMERIS_TYPE = 0
CLASSIFICATION_TYPE = U
NORAD_CAT_ID   = 20443
ELEMENT_SET_NO = 999
REV_AT_EPOCH   = 89394
BSTAR          = .90261649E-4
MEAN_MOTION_DOT = .241E-5
MEAN_MOTION_DDOT = 0

CCSDS_OMM_VERS = 2.0
CREATION_DATE  = 
ORIGINATOR     = 

OBJECT_NAME    = DELTA 2 R/B(1)
OBJECT_ID      = 1990-008B
CENTER_NAME    = EARTH
REF_FRAME      = TEME
TIME_SYSTEM    = UTC
MEAN_ELEMENT_THEORY = SGP/SGP4

EPOCH          = 2026-03-17T12:29:30.836256
MEAN_MOTION    = 15.56999560
ECCENTRICITY   = .00825224
INCLINATION    = 35.6030
RA_OF_ASC_NODE = 123.4199
ARG_OF_PERICENTER = 331.0794
MEAN_ANOMALY   = 28.5384

EPHEMERIS_TYPE = 0
CLASSIFICATION_TYPE = U
NORAD_CAT_ID   = 20453
ELEMENT_SET_NO = 999
REV_AT_EPOCH   = 92735
BSTAR          = .58768033E-3
MEAN_MOTION_DOT = .51669E-3
MEAN_MOTION_DDOT = 0

