SL-3 R/B                
1 19046U 88032B   26076.56672351  .00004206  00000+0  19697-3 0  9993
2 19046  97.5196  59.7902 0025105 202.6815 157.3313 15.20000093 53302
SL-16 R/B               
1 19120U 88039B   26076.37888303  .00000069  00000+0  55570-4 0  9992
2 19120  71.0146  52.2872 0023163 323.2051  36.7483 14.19617500959470
COSMOS 1953             
1 19210U 88050A   26076.61193900  .00005994  00000+0  21344-3 0  9997
2 19210  82.5102 150.2799 0012660  97.6943 262.5734 15.28658508 38995
SL-8 R/B                
1 19257U 88053B   26076.53231403  .00000280  00000+0  99320-4 0  9996
2 19257  74.0450  98.0088 0021534 276.2738 245.9432 14.38920891977725
COSMOS 1975             
1 19573U 88093A   26076.12425647  .00004627  00000+0  16695-3 0  9993
2 19573  82.5171 110.2205 0012790 138.7497 221.4711 15.28173282 20548
SL-14 R/B               
1 19574U 88093B   26076.63063161  .00000537  00000+0  58914-4 0  9996
2 19574  82.5321  34.5895 0021127  16.2873 156.4163 14.85666441  2196
SL-16 R/B               
1 19650U 88102B   26076.60412135  .00000027  00000+0  37591-4 0  9990
2 19650  70.9991 134.8452 0014520 349.2247  10.8563 14.16155986928017
INTERCOSMOS 24          
1 20261U 89080A   26076.42784031  .00000582  00000+0  17326-3 0  9992
2 20261  82.6018  99.3639 1186668 274.8407  71.8500 12.59569303667772
SL-14 R/B               
1 20262U 89080C   26076.55779293  .00000479  00000+0  13762-3 0  9996
2 20262  82.5968 168.1372 1230759 166.7724 196.9016 12.50502604661134
DELTA 1 R/B             
1 20323U 89089B   26076.48407427  .00000349  00000+0  94617-4 0  9997
2 20323  97.0700 282.6828 0070713  97.8099 263.1135 14.50669790896866
ARIANE 40 R/B           
1 20443U 90005H   26076.59652082  .00000241  00000+0  90262-4 0  9994
2 20443  98.3066 137.0218 0010342 174.4338 185.6968 14.39875714893944
DELTA 2 R/B(1)          
1 20453U 90008B   26076.52049579  .00051669  00000+0  58768-3 0  9996
2 20453  35.6030 123.4199 0082522 331.0794  28.5384 15.56999560927359
